{"fetched_at":"2026-03-28T12:54:06Z","count":2743,"tles":[{"name":"HAIYANG-2A","line1":"1 37781U 11043A   26086.50612156  .00000003  00000+0  47349-4 0  9996","line2":"2 37781  99.3426  90.8166 0002981 235.6711 124.4158 13.77309885735423","category":"Other"}]}